{"type": "FeatureCollection", "features": [ {"type": "Feature", "properties": {"norad_id": 66886, "name": "STARLINK-35900", "group": "last-30-days", "lat": 30.265356831921316, "lon": -141.52027232365606, "alt_km": 298.13656005789835, "timestamp": "2025-12-14T14:39:28.134225+00:00", "meta": {"OBJECT_NAME": "STARLINK-35900", "OBJECT_ID": "2025-283J", "EPOCH": "2025-12-13T20:00:03.000384", "MEAN_MOTION": 15.92085226, "ECCENTRICITY": 7.08e-05, "INCLINATION": 53.1552, "RA_OF_ASC_NODE": 68.3858, "ARG_OF_PERICENTER": 59.1963, "MEAN_ANOMALY": 306.3105, "EPHEMERIS_TYPE": 0, "CLASSIFICATION_TYPE": "U", "NORAD_CAT_ID": 66886, "ELEMENT_SET_NO": 999, "REV_AT_EPOCH": 260, "BSTAR": -0.0038852464, "MEAN_MOTION_DOT": -0.01323215, "MEAN_MOTION_DDOT": 0.00050938881}, "tle": {"line1": "1 66886U 25283J   25347.83336806 -.01323215  50939-3 -38852-2 0  9998", "line2": "2 66886  53.1552  68.3858 0000708  59.1963 306.3105 15.92085226  2609"}}, "geometry": {"type": "Point", "coordinates": [-141.52027232365606, 30.265356831921316]}}, {"type": "Feature", "properties": {"norad_id": 66887, "name": "STARLINK-35925", "group": "last-30-days", "lat": 28.569775710917728, "lon": -139.67514701313874, "alt_km": 298.30038860363675, "timestamp": "2025-12-14T14:39:28.134236+00:00", "meta": {"OBJECT_NAME": "STARLINK-35925", "OBJECT_ID": "2025-283K", "EPOCH": "2025-12-13T20:00:03.000384", "MEAN_MOTION": 15.92136944, "ECCENTRICITY": 7.516e-05, "INCLINATION": 53.1552, "RA_OF_ASC_NODE": 68.3815, "ARG_OF_PERICENTER": 61.1629, "MEAN_ANOMALY": 306.5523, "EPHEMERIS_TYPE": 0, "CLASSIFICATION_TYPE": "U", "NORAD_CAT_ID": 66887, "ELEMENT_SET_NO": 999, "REV_AT_EPOCH": 260, "BSTAR": -0.0039000647, "MEAN_MOTION_DOT": -0.01331738, "MEAN_MOTION_DDOT": 0.00051564318}, "tle": {"line1": "1 66887U 25283K   25347.83336806 -.01331738  51564-3 -39001-2 0  9990", "line2": "2 66887  53.1552  68.3815 0000751  61.1629 306.5523 15.92136944  2603"}}, "geometry": {"type": "Point", "coordinates": [-139.67514701313874, 28.569775710917728]}}, {"type": "Feature", "properties": {"norad_id": 66888, "name": "STARLINK-35919", "group": "last-30-days", "lat": 26.855924997892757, "lon": -137.89584070545357, "alt_km": 298.50597269496666, "timestamp": "2025-12-14T14:39:28.134246+00:00", "meta": {"OBJECT_NAME": "STARLINK-35919", "OBJECT_ID": "2025-283L", "EPOCH": "2025-12-13T20:00:03.000384", "MEAN_MOTION": 15.92188598, "ECCENTRICITY": 7.766e-05, "INCLINATION": 53.1552, "RA_OF_ASC_NODE": 68.3766, "ARG_OF_PERICENTER": 59.5436, "MEAN_ANOMALY": 310.3677, "EPHEMERIS_TYPE": 0, "CLASSIFICATION_TYPE": "U", "NORAD_CAT_ID": 66888, "ELEMENT_SET_NO": 999, "REV_AT_EPOCH": 260, "BSTAR": -0.0039082727, "MEAN_MOTION_DOT": -0.01338057, "MEAN_MOTION_DDOT": 0.00052037209}, "tle": {"line1": "1 66888U 25283L   25347.83336806 -.01338057  52037-3 -39083-2 0  9998", "line2": "2 66888  53.1552  68.3766 0000776  59.5436 310.3677 15.92188598  2608"}}, "geometry": {"type": "Point", "coordinates": [-137.89584070545357, 26.855924997892757]}}, {"type": "Feature", "properties": {"norad_id": 66889, "name": "STARLINK-35852", "group": "last-30-days", "lat": 24.845879820104518, "lon": -135.9038213932558, "alt_km": 298.7596097251144, "timestamp": "2025-12-14T14:39:28.134256+00:00", "meta": {"OBJECT_NAME": "STARLINK-35852", "OBJECT_ID": "2025-283M", "EPOCH": "2025-12-13T20:00:03.000384", "MEAN_MOTION": 15.9224251, "ECCENTRICITY": 8.792e-05, "INCLINATION": 53.1547, "RA_OF_ASC_NODE": 68.3711, "ARG_OF_PERICENTER": 57.6557, "MEAN_ANOMALY": 314.809, "EPHEMERIS_TYPE": 0, "CLASSIFICATION_TYPE": "U", "NORAD_CAT_ID": 66889, "ELEMENT_SET_NO": 999, "REV_AT_EPOCH": 260, "BSTAR": -0.0039144597, "MEAN_MOTION_DOT": -0.01343881, "MEAN_MOTION_DDOT": 0.00052478319}, "tle": {"line1": "1 66889U 25283M   25347.83336806 -.01343881  52478-3 -39145-2 0  9998", "line2": "2 66889  53.1547  68.3711 0000879  57.6557 314.8090 15.92242510  2603"}}, "geometry": {"type": "Point", "coordinates": [-135.9038213932558, 24.845879820104518]}}, {"type": "Feature", "properties": {"norad_id": 66890, "name": "STARLINK-35885", "group": "last-30-days", "lat": 22.918850921411938, "lon": -134.07610463073888, "alt_km": 298.94332485412815, "timestamp": "2025-12-14T14:39:28.134270+00:00", "meta": {"OBJECT_NAME": "STARLINK-35885", "OBJECT_ID": "2025-283N", "EPOCH": "2025-12-13T20:00:03.000384", "MEAN_MOTION": 15.92296796, "ECCENTRICITY": 7.932e-05, "INCLINATION": 53.1549, "RA_OF_ASC_NODE": 68.3662, "ARG_OF_PERICENTER": 60.2491, "MEAN_ANOMALY": 314.6273, "EPHEMERIS_TYPE": 0, "CLASSIFICATION_TYPE": "U", "NORAD_CAT_ID": 66890, "ELEMENT_SET_NO": 999, "REV_AT_EPOCH": 260, "BSTAR": -0.0039199407, "MEAN_MOTION_DOT": -0.01349494, "MEAN_MOTION_DDOT": 0.00052906516}, "tle": {"line1": "1 66890U 25283N   25347.83336806 -.01349494  52907-3 -39199-2 0  9992", "line2": "2 66890  53.1549  68.3662 0000793  60.2491 314.6273 15.92296796  2600"}}, "geometry": {"type": "Point", "coordinates": [-134.07610463073888, 22.918850921411938]}}, {"type": "Feature", "properties": {"norad_id": 66891, "name": "STARLINK-35855", "group": "last-30-days", "lat": 20.920258179005007, "lon": -132.25436293859934, "alt_km": 299.1612907604522, "timestamp": "2025-12-14T14:39:28.134280+00:00", "meta": {"OBJECT_NAME": "STARLINK-35855", "OBJECT_ID": "2025-283P", "EPOCH": "2025-12-13T20:00:03.000384", "MEAN_MOTION": 15.92356076, "ECCENTRICITY": 7.552e-05, "INCLINATION": 53.155, "RA_OF_ASC_NODE": 68.3612, "ARG_OF_PERICENTER": 62.3353, "MEAN_ANOMALY": 315.0219, "EPHEMERIS_TYPE": 0, "CLASSIFICATION_TYPE": "U", "NORAD_CAT_ID": 66891, "ELEMENT_SET_NO": 999, "REV_AT_EPOCH": 260, "BSTAR": -0.0039482639, "MEAN_MOTION_DOT": -0.01363277, "MEAN_MOTION_DDOT": 0.000539271}, "tle": {"line1": "1 66891U 25283P   25347.83336806 -.01363277  53927-3 -39483-2 0  9997", "line2": "2 66891  53.1550  68.3612 0000755  62.3353 315.0219 15.92356076  2609"}}, "geometry": {"type": "Point", "coordinates": [-132.25436293859934, 20.920258179005007]}}, {"type": "Feature", "properties": {"norad_id": 66892, "name": "STARLINK-35883", "group": "last-30-days", "lat": 18.966628638629807, "lon": -130.53698353258122, "alt_km": 299.3450159983631, "timestamp": "2025-12-14T14:39:28.134289+00:00", "meta": {"OBJECT_NAME": "STARLINK-35883", "OBJECT_ID": "2025-283Q", "EPOCH": "2025-12-13T20:00:03.000384", "MEAN_MOTION": 15.924031, "ECCENTRICITY": 8.775e-05, "INCLINATION": 53.1548, "RA_OF_ASC_NODE": 68.3558, "ARG_OF_PERICENTER": 61.7945, "MEAN_ANOMALY": 317.9463, "EPHEMERIS_TYPE": 0, "CLASSIFICATION_TYPE": "U", "NORAD_CAT_ID": 66892, "ELEMENT_SET_NO": 999, "REV_AT_EPOCH": 254, "BSTAR": -0.0039122221, "MEAN_MOTION_DOT": -0.01354269, "MEAN_MOTION_DDOT": 0.00053303467}, "tle": {"line1": "1 66892U 25283Q   25347.83336806 -.01354269  53303-3 -39122-2 0  9997", "line2": "2 66892  53.1548  68.3558 0000877  61.7945 317.9463 15.92403100  2547"}}, "geometry": {"type": "Point", "coordinates": [-130.53698353258122, 18.966628638629807]}}, {"type": "Feature", "properties": {"norad_id": 66893, "name": "STARLINK-36033", "group": "last-30-days", "lat": 17.085388614800074, "lon": -128.93289989031317, "alt_km": 299.5840711229048, "timestamp": "2025-12-14T14:39:28.134299+00:00", "meta": {"OBJECT_NAME": "STARLINK-36033", "OBJECT_ID": "2025-283R", "EPOCH": "2025-12-13T20:00:03.000384", "MEAN_MOTION": 15.92458112, "ECCENTRICITY": 9.305e-05, "INCLINATION": 53.1547, "RA_OF_ASC_NODE": 68.3512, "ARG_OF_PERICENTER": 60.1762, "MEAN_ANOMALY": 321.8521, "EPHEMERIS_TYPE": 0, "CLASSIFICATION_TYPE": "U", "NORAD_CAT_ID": 66893, "ELEMENT_SET_NO": 999, "REV_AT_EPOCH": 260, "BSTAR": -0.0039283689, "MEAN_MOTION_DOT": -0.01363658, "MEAN_MOTION_DDOT": 0.00054008228}, "tle": {"line1": "1 66893U 25283R   25347.83336806 -.01363658  54008-3 -39284-2 0  9992", "line2": "2 66893  53.1547  68.3512 0000930  60.1762 321.8521 15.92458112  2606"}}, "geometry": {"type": "Point", "coordinates": [-128.93289989031317, 17.085388614800074]}}, {"type": "Feature", "properties": {"norad_id": 66894, "name": "STARLINK-35718", "group": "last-30-days", "lat": 14.711087894311081, "lon": -126.96813548837358, "alt_km": 299.65976707409845, "timestamp": "2025-12-14T14:39:28.134309+00:00", "meta": {"OBJECT_NAME": "STARLINK-35718", "OBJECT_ID": "2025-283S", "EPOCH": "2025-12-13T20:00:03.000384", "MEAN_MOTION": 15.92508268, "ECCENTRICITY": 0.0001009, "INCLINATION": 53.1549, "RA_OF_ASC_NODE": 68.3453, "ARG_OF_PERICENTER": 46.803, "MEAN_ANOMALY": 338.116, "EPHEMERIS_TYPE": 0, "CLASSIFICATION_TYPE": "U", "NORAD_CAT_ID": 66894, "ELEMENT_SET_NO": 999, "REV_AT_EPOCH": 260, "BSTAR": -0.003912596, "MEAN_MOTION_DOT": -0.01361775, "MEAN_MOTION_DDOT": 0.00053898973}, "tle": {"line1": "1 66894U 25283S   25347.83336806 -.01361775  53899-3 -39126-2 0  9993", "line2": "2 66894  53.1549  68.3453 0001009  46.8030 338.1160 15.92508268  2608"}}, "geometry": {"type": "Point", "coordinates": [-126.96813548837358, 14.711087894311081]}}, {"type": "Feature", "properties": {"norad_id": 66895, "name": "STARLINK-35971", "group": "last-30-days", "lat": 10.647365751905804, "lon": -123.72953393957825, "alt_km": 300.2846401020761, "timestamp": "2025-12-14T14:39:28.134320+00:00", "meta": {"OBJECT_NAME": "STARLINK-35971", "OBJECT_ID": "2025-283T", "EPOCH": "2025-12-13T20:00:03.000384", "MEAN_MOTION": 15.92637642, "ECCENTRICITY": 8.654e-05, "INCLINATION": 53.1543, "RA_OF_ASC_NODE": 68.3345, "ARG_OF_PERICENTER": 58.7683, "MEAN_ANOMALY": 330.9942, "EPHEMERIS_TYPE": 0, "CLASSIFICATION_TYPE": "U", "NORAD_CAT_ID": 66895, "ELEMENT_SET_NO": 999, "REV_AT_EPOCH": 260, "BSTAR": -0.003961396, "MEAN_MOTION_DOT": -0.01387771, "MEAN_MOTION_DDOT": 0.00055860878}, "tle": {"line1": "1 66895U 25283T   25347.83336806 -.01387771  55861-3 -39614-2 0  9991", "line2": "2 66895  53.1543  68.3345 0000865  58.7683 330.9942 15.92637642  2605"}}, "geometry": {"type": "Point", "coordinates": [-123.72953393957825, 10.647365751905804]}}]}